[{"OBJECT_NAME":"STARLINK-36655","OBJECT_ID":"2026-033P","EPOCH":"2026-03-02T22:00:01.999584","MEAN_MOTION":15.82012298,"ECCENTRICITY":0.00015264,"INCLINATION":42.9976,"RA_OF_ASC_NODE":312.9084,"ARG_OF_PERICENTER":267.2646,"MEAN_ANOMALY":16.478,"EPHEMERIS_TYPE":0,"CLASSIFICATION_TYPE":"U","NORAD_CAT_ID":67834,"ELEMENT_SET_NO":999,"REV_AT_EPOCH":357,"BSTAR":0.00010969501,"MEAN_MOTION_DOT":0.00022621,"MEAN_MOTION_DDOT":0},{"OBJECT_NAME":"STARLINK-36657","OBJECT_ID":"2026-033Q","EPOCH":"2026-03-02T22:00:01.999584","MEAN_MOTION":15.82008494,"ECCENTRICITY":0.00018067,"INCLINATION":42.9976,"RA_OF_ASC_NODE":312.8978,"ARG_OF_PERICENTER":274.0491,"MEAN_ANOMALY":13.9765,"EPHEMERIS_TYPE":0,"CLASSIFICATION_TYPE":"U","NORAD_CAT_ID":67835,"ELEMENT_SET_NO":999,"REV_AT_EPOCH":357,"BSTAR":5.8487104e-5,"MEAN_MOTION_DOT":0.00011795,"MEAN_MOTION_DDOT":0},{"OBJECT_NAME":"STARLINK-36650","OBJECT_ID":"2026-033R","EPOCH":"2026-03-02T22:00:01.999584","MEAN_MOTION":15.81992877,"ECCENTRICITY":0.00015912,"INCLINATION":42.9976,"RA_OF_ASC_NODE":312.8868,"ARG_OF_PERICENTER":272.5892,"MEAN_ANOMALY":19.7051,"EPHEMERIS_TYPE":0,"CLASSIFICATION_TYPE":"U","NORAD_CAT_ID":67836,"ELEMENT_SET_NO":999,"REV_AT_EPOCH":357,"BSTAR":0.00028248217,"MEAN_MOTION_DOT":0.00059291,"MEAN_MOTION_DDOT":0},{"OBJECT_NAME":"STARLINK-36649","OBJECT_ID":"2026-033S","EPOCH":"2026-03-02T22:00:01.999584","MEAN_MOTION":15.8198444,"ECCENTRICITY":0.00018375,"INCLINATION":42.9974,"RA_OF_ASC_NODE":312.8766,"ARG_OF_PERICENTER":275.7579,"MEAN_ANOMALY":20.8218,"EPHEMERIS_TYPE":0,"CLASSIFICATION_TYPE":"U","NORAD_CAT_ID":67837,"ELEMENT_SET_NO":999,"REV_AT_EPOCH":357,"BSTAR":0.00024933671,"MEAN_MOTION_DOT":0.00052209,"MEAN_MOTION_DDOT":0},{"OBJECT_NAME":"STARLINK-36654","OBJECT_ID":"2026-033T","EPOCH":"2026-03-02T22:00:01.999584","MEAN_MOTION":15.81987997,"ECCENTRICITY":0.00016827,"INCLINATION":42.9977,"RA_OF_ASC_NODE":312.8653,"ARG_OF_PERICENTER":265.5994,"MEAN_ANOMALY":35.2492,"EPHEMERIS_TYPE":0,"CLASSIFICATION_TYPE":"U","NORAD_CAT_ID":67838,"ELEMENT_SET_NO":999,"REV_AT_EPOCH":357,"BSTAR":0.00030916023,"MEAN_MOTION_DOT":0.0006497,"MEAN_MOTION_DDOT":0},{"OBJECT_NAME":"STARLINK-36652","OBJECT_ID":"2026-033U","EPOCH":"2026-03-02T22:00:01.999584","MEAN_MOTION":15.82014004,"ECCENTRICITY":0.00015647,"INCLINATION":42.9974,"RA_OF_ASC_NODE":312.8547,"ARG_OF_PERICENTER":266.6502,"MEAN_ANOMALY":38.4569,"EPHEMERIS_TYPE":0,"CLASSIFICATION_TYPE":"U","NORAD_CAT_ID":67839,"ELEMENT_SET_NO":999,"REV_AT_EPOCH":357,"BSTAR":4.4009057e-5,"MEAN_MOTION_DOT":8.742e-5,"MEAN_MOTION_DDOT":0},{"OBJECT_NAME":"STARLINK-36651","OBJECT_ID":"2026-033V","EPOCH":"2026-03-02T22:00:01.999584","MEAN_MOTION":15.82023218,"ECCENTRICITY":0.00020969,"INCLINATION":42.9975,"RA_OF_ASC_NODE":312.8445,"ARG_OF_PERICENTER":237.0192,"MEAN_ANOMALY":72.3656,"EPHEMERIS_TYPE":0,"CLASSIFICATION_TYPE":"U","NORAD_CAT_ID":67840,"ELEMENT_SET_NO":999,"REV_AT_EPOCH":357,"BSTAR":-6.8020287e-5,"MEAN_MOTION_DOT":-0.00014838,"MEAN_MOTION_DDOT":0},{"OBJECT_NAME":"STARLINK-36656","OBJECT_ID":"2026-033W","EPOCH":"2026-03-02T22:00:01.999584","MEAN_MOTION":15.81987343,"ECCENTRICITY":0.00022288,"INCLINATION":42.9977,"RA_OF_ASC_NODE":312.8331,"ARG_OF_PERICENTER":274.7795,"MEAN_ANOMALY":38.8887,"EPHEMERIS_TYPE":0,"CLASSIFICATION_TYPE":"U","NORAD_CAT_ID":67841,"ELEMENT_SET_NO":999,"REV_AT_EPOCH":357,"BSTAR":0.00026568007,"MEAN_MOTION_DOT":0.00055698,"MEAN_MOTION_DDOT":0},{"OBJECT_NAME":"STARLINK-36653","OBJECT_ID":"2026-033X","EPOCH":"2026-03-02T22:00:01.999584","MEAN_MOTION":15.81966247,"ECCENTRICITY":0.00016369,"INCLINATION":42.9976,"RA_OF_ASC_NODE":312.8222,"ARG_OF_PERICENTER":271.8983,"MEAN_ANOMALY":46.0457,"EPHEMERIS_TYPE":0,"CLASSIFICATION_TYPE":"U","NORAD_CAT_ID":67842,"ELEMENT_SET_NO":999,"REV_AT_EPOCH":357,"BSTAR":0.0005279882,"MEAN_MOTION_DOT":0.00111827,"MEAN_MOTION_DDOT":0},{"OBJECT_NAME":"STARLINK-36589","OBJECT_ID":"2026-033Y","EPOCH":"2026-03-02T22:00:01.999584","MEAN_MOTION":15.82034957,"ECCENTRICITY":0.00019899,"INCLINATION":42.9979,"RA_OF_ASC_NODE":312.8115,"ARG_OF_PERICENTER":276.6527,"MEAN_ANOMALY":45.5382,"EPHEMERIS_TYPE":0,"CLASSIFICATION_TYPE":"U","NORAD_CAT_ID":67843,"ELEMENT_SET_NO":999,"REV_AT_EPOCH":357,"BSTAR":-0.0001578916,"MEAN_MOTION_DOT":-0.00033683,"MEAN_MOTION_DDOT":0},{"OBJECT_NAME":"STARLINK-36598","OBJECT_ID":"2026-033Z","EPOCH":"2026-03-02T22:00:01.999584","MEAN_MOTION":15.82010326,"ECCENTRICITY":0.00018369,"INCLINATION":42.9978,"RA_OF_ASC_NODE":312.8011,"ARG_OF_PERICENTER":268.6922,"MEAN_ANOMALY":57.7908,"EPHEMERIS_TYPE":0,"CLASSIFICATION_TYPE":"U","NORAD_CAT_ID":67844,"ELEMENT_SET_NO":999,"REV_AT_EPOCH":357,"BSTAR":8.574119e-6,"MEAN_MOTION_DOT":1.272e-5,"MEAN_MOTION_DDOT":0},{"OBJECT_NAME":"STARLINK-36606","OBJECT_ID":"2026-033AA","EPOCH":"2026-03-02T22:00:01.999584","MEAN_MOTION":15.81984464,"ECCENTRICITY":0.00018965,"INCLINATION":42.9976,"RA_OF_ASC_NODE":312.7898,"ARG_OF_PERICENTER":269.1346,"MEAN_ANOMALY":61.6179,"EPHEMERIS_TYPE":0,"CLASSIFICATION_TYPE":"U","NORAD_CAT_ID":67845,"ELEMENT_SET_NO":999,"REV_AT_EPOCH":357,"BSTAR":0.00040593001,"MEAN_MOTION_DOT":0.00085666,"MEAN_MOTION_DDOT":0},{"OBJECT_NAME":"STARLINK-36658","OBJECT_ID":"2026-033AB","EPOCH":"2026-03-02T22:00:01.999584","MEAN_MOTION":15.81991883,"ECCENTRICITY":0.00015528,"INCLINATION":42.9975,"RA_OF_ASC_NODE":312.7792,"ARG_OF_PERICENTER":269.0942,"MEAN_ANOMALY":65.932,"EPHEMERIS_TYPE":0,"CLASSIFICATION_TYPE":"U","NORAD_CAT_ID":67846,"ELEMENT_SET_NO":999,"REV_AT_EPOCH":357,"BSTAR":0.00026301779,"MEAN_MOTION_DOT":0.0005514,"MEAN_MOTION_DDOT":0},{"OBJECT_NAME":"STARLINK-36618","OBJECT_ID":"2026-033AC","EPOCH":"2026-03-02T21:07:13.898208","MEAN_MOTION":15.9894189,"ECCENTRICITY":0.00030123,"INCLINATION":42.9869,"RA_OF_ASC_NODE":311.4895,"ARG_OF_PERICENTER":257.9405,"MEAN_ANOMALY":102.1136,"EPHEMERIS_TYPE":0,"CLASSIFICATION_TYPE":"U","NORAD_CAT_ID":67847,"ELEMENT_SET_NO":999,"REV_AT_EPOCH":356,"BSTAR":-7.502403e-6,"MEAN_MOTION_DOT":-6.455e-5,"MEAN_MOTION_DDOT":8.483483e-6},{"OBJECT_NAME":"STARLINK-36660","OBJECT_ID":"2026-033AD","EPOCH":"2026-03-02T22:00:01.999584","MEAN_MOTION":15.81993051,"ECCENTRICITY":0.00018763,"INCLINATION":42.9977,"RA_OF_ASC_NODE":312.7685,"ARG_OF_PERICENTER":250.2351,"MEAN_ANOMALY":89.0658,"EPHEMERIS_TYPE":0,"CLASSIFICATION_TYPE":"U","NORAD_CAT_ID":67848,"ELEMENT_SET_NO":999,"REV_AT_EPOCH":357,"BSTAR":0.00020774494,"MEAN_MOTION_DOT":0.00043384,"MEAN_MOTION_DDOT":0},{"OBJECT_NAME":"STARLINK-36602","OBJECT_ID":"2026-033AE","EPOCH":"2026-03-02T22:00:01.999584","MEAN_MOTION":15.81977337,"ECCENTRICITY":0.00017951,"INCLINATION":42.9976,"RA_OF_ASC_NODE":312.7572,"ARG_OF_PERICENTER":306.0056,"MEAN_ANOMALY":37.5806,"EPHEMERIS_TYPE":0,"CLASSIFICATION_TYPE":"U","NORAD_CAT_ID":67849,"ELEMENT_SET_NO":999,"REV_AT_EPOCH":357,"BSTAR":0.00029450325,"MEAN_MOTION_DOT":0.00061811,"MEAN_MOTION_DDOT":0}]
